[{"OBJECT_NAME":"STARLINK-34443","OBJECT_ID":"2025-123F","EPOCH":"2026-03-09T17:18:26.883936","MEAN_MOTION":14.98335644,"ECCENTRICITY":0.00036346,"INCLINATION":70.0021,"RA_OF_ASC_NODE":194.3603,"ARG_OF_PERICENTER":273.3947,"MEAN_ANOMALY":86.6796,"EPHEMERIS_TYPE":0,"CLASSIFICATION_TYPE":"U","NORAD_CAT_ID":64296,"ELEMENT_SET_NO":999,"REV_AT_EPOCH":4284,"BSTAR":0.00044219948,"MEAN_MOTION_DOT":5.188e-5,"MEAN_MOTION_DDOT":0},{"OBJECT_NAME":"FENGYUN 1C DEB","OBJECT_ID":"1999-025ECZ","EPOCH":"2026-03-06T15:56:09.405600","MEAN_MOTION":14.4183664,"ECCENTRICITY":0.02789031,"INCLINATION":98.8006,"RA_OF_ASC_NODE":17.7433,"ARG_OF_PERICENTER":114.6839,"MEAN_ANOMALY":248.3662,"EPHEMERIS_TYPE":0,"CLASSIFICATION_TYPE":"U","NORAD_CAT_ID":37017,"ELEMENT_SET_NO":999,"REV_AT_EPOCH":62370,"BSTAR":0.0010503478,"MEAN_MOTION_DOT":5.43e-5,"MEAN_MOTION_DDOT":0}]
